[{"OBJECT_NAME":"KORSAT-7","OBJECT_ID":"2023-185B","EPOCH":"2026-03-09T23:44:55.136256","MEAN_MOTION":15.00898391,"ECCENTRICITY":0.00224341,"INCLINATION":97.6243,"RA_OF_ASC_NODE":135.089,"ARG_OF_PERICENTER":307.6562,"MEAN_ANOMALY":52.2627,"EPHEMERIS_TYPE":0,"CLASSIFICATION_TYPE":"U","NORAD_CAT_ID":58463,"ELEMENT_SET_NO":999,"REV_AT_EPOCH":12440,"BSTAR":0.00023536002,"MEAN_MOTION_DOT":2.951e-5,"MEAN_MOTION_DDOT":0},{"OBJECT_NAME":"LEMUR-2-DELOITTE-1","OBJECT_ID":"2025-052BB","EPOCH":"2026-03-09T22:32:58.708896","MEAN_MOTION":14.9679712,"ECCENTRICITY":0.00030112,"INCLINATION":97.7035,"RA_OF_ASC_NODE":323.209,"ARG_OF_PERICENTER":78.3841,"MEAN_ANOMALY":281.7719,"EPHEMERIS_TYPE":0,"CLASSIFICATION_TYPE":"U","NORAD_CAT_ID":63259,"ELEMENT_SET_NO":999,"REV_AT_EPOCH":5384,"BSTAR":0.00044206323,"MEAN_MOTION_DOT":5.004e-5,"MEAN_MOTION_DDOT":0}]
